GLOBALSTAR M094 [+]     
1 39074U 13005C   23347.50162523 -.00000103  00000+0  56810-5 0  9994
2 39074  51.9972  61.8354 0000797 130.0088 230.0849 12.62270137502709
GLOBALSTAR M096 [+]     
1 39075U 13005D   23347.51494565 -.00000121  00000+0 -97498-4 0  9997
2 39075  52.0065 109.8787 0001229 117.2098 242.8894 12.62266874501979
GLOBALSTAR M078 [+]     
1 39076U 13005E   23347.88433166 -.00000082  00000+0  11933-3 0  9992
2 39076  51.9848 194.0156 0001861  60.2923 299.8129 12.62264725500299
GLOBALSTAR M095 [+]     
1 39077U 13005F   23347.75232271 -.00000079  00000+0  13666-3 0  9994
2 39077  51.9774 191.8879 0001802  80.8654 279.2417 12.62272004500133
GLOBALSTAR M087 [+]     
1 52888U 22064A   23347.59961129 -.00000134  00000+0 -11417-4 0  9993
2 52888  51.9742 138.9945 0008662 247.6940 112.3042 13.37560083 72552
